{
 "type": "FeatureCollection",
 "name": "ortsteile_03256034",
 "crs": {
  "type": "name",
  "properties": {
   "name": "urn:ogc:def:crs:OGC:1.3:CRS84"
  }
 },
 "gemeinde": {
  "ags": "03256034",
  "name": "Gemeinde Warmsen",
  "vg250_stand": "vg250_ebenen_0101"
 },
 "quelle": "OpenStreetMap über Overpass API",
 "lizenz": "ODbL 1.0, © OpenStreetMap-Mitwirkende",
 "stand_osm_base": "2026-09-27T11:19:06Z",
 "abgerufen": "2026-09-27",
 "mindestanteil_in_gemeinde": 0.5,
 "features": [
  {
   "type": "Feature",
   "properties": {
    "name": "Bohnhorst",
    "admin_level": 10,
    "osm_relation": 2983143,
    "anteil_in_gemeinde": 0.9948,
    "flaeche_km2": 23.021
   },
   "geometry": {
    "type": "Polygon",
    "coordinates": [
     [
      [
       8.7891794,
       52.398595
      ],
      [
       8.7859564,
       52.4036084
      ],
      [
       8.784059,
       52.4085986
      ],
      [
       8.7840991,
       52.4090231
      ],
      [
       8.7838931,
       52.4091752
      ],
      [
       8.7839153,
       52.4092284
      ],
      [
       8.7836726,
       52.4096045
      ],
      [
       8.7828274,
       52.4092793
      ],
      [
       8.7795948,
       52.4120759
      ],
      [
       8.7783819,
       52.4131513
      ],
      [
       8.7818392,
       52.4145572
      ],
      [
       8.7809647,
       52.4172698
      ],
      [
       8.7809058,
       52.4174049
      ],
      [
       8.7772653,
       52.4181543
      ],
      [
       8.7762045,
       52.4208778
      ],
      [
       8.776414,
       52.4223154
      ],
      [
       8.7725508,
       52.426056
      ],
      [
       8.7734329,
       52.4263922
      ],
      [
       8.775318,
       52.4262279
      ],
      [
       8.7777297,
       52.4269174
      ],
      [
       8.7780719,
       52.4268556
      ],
      [
       8.7812006,
       52.4277468
      ],
      [
       8.7789951,
       52.4299082
      ],
      [
       8.7810415,
       52.4305458
      ],
      [
       8.7810785,
       52.4306618
      ],
      [
       8.7811322,
       52.4307565
      ],
      [
       8.7825664,
       52.4312479
      ],
      [
       8.7840296,
       52.431588
      ],
      [
       8.7843007,
       52.4316308
      ],
      [
       8.7885183,
       52.4318717
      ],
      [
       8.787777,
       52.4325642
      ],
      [
       8.783949,
       52.4362756
      ],
      [
       8.7888323,
       52.4375207
      ],
      [
       8.786908,
       52.4404754
      ],
      [
       8.7871073,
       52.4404949
      ],
      [
       8.7886508,
       52.440575
      ],
      [
       8.7891554,
       52.4397787
      ],
      [
       8.790969,
       52.4401693
      ],
      [
       8.7911487,
       52.4410933
      ],
      [
       8.7928822,
       52.442346
      ],
      [
       8.7946146,
       52.4428757
      ],
      [
       8.7942053,
       52.4439472
      ],
      [
       8.7889971,
       52.4485333
      ],
      [
       8.7891796,
       52.4494081
      ],
      [
       8.7887052,
       52.4494749
      ],
      [
       8.7892891,
       52.4519511
      ],
      [
       8.7891627,
       52.4531889
      ],
      [
       8.7891304,
       52.4534707
      ],
      [
       8.792262,
       52.453095
      ],
      [
       8.7907255,
       52.4569305
      ],
      [
       8.7914478,
       52.457139
      ],
      [
       8.7913989,
       52.4580496
      ],
      [
       8.7869468,
       52.4633078
      ],
      [
       8.7864386,
       52.4631427
      ],
      [
       8.7833755,
       52.4667518
      ],
      [
       8.7866938,
       52.4660774
      ],
      [
       8.7869075,
       52.4659382
      ],
      [
       8.787298,
       52.4658125
      ],
      [
       8.7876222,
       52.4657721
      ],
      [
       8.7881675,
       52.4659113
      ],
      [
       8.789538,
       52.4659068
      ],
      [
       8.7902748,
       52.4657048
      ],
      [
       8.7906948,
       52.4655118
      ],
      [
       8.7912622,
       52.4646454
      ],
      [
       8.7916969,
       52.4642503
      ],
      [
       8.7923895,
       52.4637745
      ],
      [
       8.7924484,
       52.4633929
      ],
      [
       8.7927063,
       52.4630921
      ],
      [
       8.7931411,
       52.4629574
      ],
      [
       8.7943642,
       52.4628362
      ],
      [
       8.7960073,
       52.4624905
      ],
      [
       8.8006911,
       52.4640058
      ],
      [
       8.8008702,
       52.4640638
      ],
      [
       8.8031691,
       52.4648074
      ],
      [
       8.8030649,
       52.4653153
      ],
      [
       8.8020276,
       52.4660499
      ],
      [
       8.7973782,
       52.4678186
      ],
      [
       8.7970891,
       52.4679851
      ],
      [
       8.7948234,
       52.4694192
      ],
      [
       8.7944107,
       52.4701105
      ],
      [
       8.794197,
       52.4715423
      ],
      [
       8.7942781,
       52.4717308
      ],
      [
       8.7950665,
       52.4720181
      ],
      [
       8.7961423,
       52.4722021
      ],
      [
       8.7974686,
       52.4723457
      ],
      [
       8.798957,
       52.4721842
      ],
      [
       8.7989881,
       52.4696422
      ],
      [
       8.8146913,
       52.4633829
      ],
      [
       8.8223407,
       52.4603203
      ],
      [
       8.8230488,
       52.46125
      ],
      [
       8.8234577,
       52.4616389
      ],
      [
       8.8238367,
       52.4618334
      ],
      [
       8.8265771,
       52.4623965
      ],
      [
       8.8269774,
       52.4597072
      ],
      [
       8.831009,
       52.4564941
      ],
      [
       8.8311581,
       52.4562636
      ],
      [
       8.8312613,
       52.4477767
      ],
      [
       8.8334109,
       52.4452933
      ],
      [
       8.8321341,
       52.4421445
      ],
      [
       8.8320185,
       52.4413158
      ],
      [
       8.8325891,
       52.4412686
      ],
      [
       8.8329083,
       52.4409797
      ],
      [
       8.8323359,
       52.4407246
      ],
      [
       8.8281281,
       52.4409621
      ],
      [
       8.828401,
       52.4424594
      ],
      [
       8.8262759,
       52.442513
      ],
      [
       8.8252665,
       52.4446177
      ],
      [
       8.8215008,
       52.44362
      ],
      [
       8.8211579,
       52.4434284
      ],
      [
       8.8203362,
       52.4419314
      ],
      [
       8.820291,
       52.441849
      ],
      [
       8.8216171,
       52.4409773
      ],
      [
       8.8280297,
       52.4367808
      ],
      [
       8.8326505,
       52.4336926
      ],
      [
       8.8316401,
       52.4330273
      ],
      [
       8.8336474,
       52.4318446
      ],
      [
       8.8339168,
       52.4312367
      ],
      [
       8.8307375,
       52.4314092
      ],
      [
       8.8276255,
       52.4316228
      ],
      [
       8.8273965,
       52.4311546
      ],
      [
       8.8350716,
       52.4296661
      ],
      [
       8.83654,
       52.4278014
      ],
      [
       8.8410809,
       52.4276749
      ],
      [
       8.8406189,
       52.426458
      ],
      [
       8.8387613,
       52.4261327
      ],
      [
       8.8387619,
       52.4258533
      ],
      [
       8.8387582,
       52.4257715
      ],
      [
       8.8402687,
       52.4246076
      ],
      [
       8.8374511,
       52.4237084
      ],
      [
       8.8360028,
       52.4239251
      ],
      [
       8.8343702,
       52.4243748
      ],
      [
       8.8338041,
       52.4243748
      ],
      [
       8.8335934,
       52.4237887
      ],
      [
       8.831816,
       52.4236361
      ],
      [
       8.8316448,
       52.4239412
      ],
      [
       8.8309997,
       52.4243427
      ],
      [
       8.8301702,
       52.4245032
      ],
      [
       8.8295382,
       52.4241259
      ],
      [
       8.8294987,
       52.4233952
      ],
      [
       8.8299859,
       52.4228252
      ],
      [
       8.8293407,
       52.4216689
      ],
      [
       8.8292408,
       52.4215088
      ],
      [
       8.8283137,
       52.4200229
      ],
      [
       8.8279978,
       52.4194046
      ],
      [
       8.8283269,
       52.4137555
      ],
      [
       8.8352628,
       52.4126879
      ],
      [
       8.8347042,
       52.4115351
      ],
      [
       8.8350487,
       52.4114215
      ],
      [
       8.8355142,
       52.4093657
      ],
      [
       8.8343225,
       52.4072075
      ],
      [
       8.8281937,
       52.4080958
      ],
      [
       8.8279418,
       52.4079288
      ],
      [
       8.8247699,
       52.3993783
      ],
      [
       8.8227177,
       52.393795
      ],
      [
       8.8132384,
       52.3951607
      ],
      [
       8.8084851,
       52.3958326
      ],
      [
       8.8057095,
       52.3962105
      ],
      [
       8.7982556,
       52.3972594
      ],
      [
       8.7952457,
       52.397704
      ],
      [
       8.7891794,
       52.398595
      ]
     ]
    ]
   }
  },
  {
   "type": "Feature",
   "properties": {
    "name": "Brünninghorstedt",
    "admin_level": 10,
    "osm_relation": 2991482,
    "anteil_in_gemeinde": 0.9909,
    "flaeche_km2": 4.215
   },
   "geometry": {
    "type": "Polygon",
    "coordinates": [
     [
      [
       8.8698447,
       52.3947569
      ],
      [
       8.8720591,
       52.3962891
      ],
      [
       8.8746014,
       52.3960086
      ],
      [
       8.8752747,
       52.3971965
      ],
      [
       8.8738021,
       52.3976923
      ],
      [
       8.8744013,
       52.399037
      ],
      [
       8.8749802,
       52.3995576
      ],
      [
       8.87432,
       52.4001091
      ],
      [
       8.8741575,
       52.4008527
      ],
      [
       8.8770622,
       52.4008341
      ],
      [
       8.8768376,
       52.4020047
      ],
      [
       8.8775557,
       52.4035733
      ],
      [
       8.8769238,
       52.4035207
      ],
      [
       8.8767923,
       52.4057718
      ],
      [
       8.876609,
       52.4066807
      ],
      [
       8.876579,
       52.4069819
      ],
      [
       8.8765216,
       52.4081385
      ],
      [
       8.8754443,
       52.4147796
      ],
      [
       8.8730191,
       52.4185035
      ],
      [
       8.8750533,
       52.4190034
      ],
      [
       8.8761324,
       52.4191116
      ],
      [
       8.8772213,
       52.4192465
      ],
      [
       8.8776543,
       52.4192742
      ],
      [
       8.8777042,
       52.4192696
      ],
      [
       8.8777392,
       52.4192664
      ],
      [
       8.87949,
       52.4191053
      ],
      [
       8.8803665,
       52.4190247
      ],
      [
       8.8803931,
       52.4190213
      ],
      [
       8.8811693,
       52.4189499
      ],
      [
       8.8818603,
       52.4188864
      ],
      [
       8.8837631,
       52.4187115
      ],
      [
       8.8848575,
       52.4186109
      ],
      [
       8.8850873,
       52.4185898
      ],
      [
       8.885683,
       52.4185351
      ],
      [
       8.8857246,
       52.4185311
      ],
      [
       8.8857511,
       52.4185288
      ],
      [
       8.8858099,
       52.4185235
      ],
      [
       8.8858563,
       52.4185194
      ],
      [
       8.8872478,
       52.4183913
      ],
      [
       8.8872437,
       52.4183837
      ],
      [
       8.8872278,
       52.4183549
      ],
      [
       8.888073,
       52.4182772
      ],
      [
       8.8888955,
       52.4182008
      ],
      [
       8.8897935,
       52.4181182
      ],
      [
       8.8902206,
       52.4180816
      ],
      [
       8.8907664,
       52.4180314
      ],
      [
       8.8907499,
       52.4179899
      ],
      [
       8.8904727,
       52.4173032
      ],
      [
       8.8903343,
       52.4169542
      ],
      [
       8.8902403,
       52.4166998
      ],
      [
       8.8894334,
       52.4157468
      ],
      [
       8.8893715,
       52.4156736
      ],
      [
       8.8893822,
       52.415656
      ],
      [
       8.8893803,
       52.4156416
      ],
      [
       8.8894155,
       52.4156213
      ],
      [
       8.889822,
       52.4154831
      ],
      [
       8.8896329,
       52.4150742
      ],
      [
       8.8896237,
       52.4150543
      ],
      [
       8.8904138,
       52.415338
      ],
      [
       8.8910955,
       52.4153985
      ],
      [
       8.891565,
       52.4154401
      ],
      [
       8.8916435,
       52.4154302
      ],
      [
       8.8921598,
       52.4153645
      ],
      [
       8.892205,
       52.4153587
      ],
      [
       8.8922978,
       52.4154169
      ],
      [
       8.892314,
       52.4154084
      ],
      [
       8.8923374,
       52.4153977
      ],
      [
       8.8923862,
       52.4153764
      ],
      [
       8.8923532,
       52.4153561
      ],
      [
       8.8932357,
       52.4149666
      ],
      [
       8.8932542,
       52.4149658
      ],
      [
       8.89355,
       52.4154115
      ],
      [
       8.8937804,
       52.4153292
      ],
      [
       8.8939436,
       52.4153385
      ],
      [
       8.8942574,
       52.4154779
      ],
      [
       8.894615,
       52.4156368
      ],
      [
       8.8946818,
       52.4156469
      ],
      [
       8.8948431,
       52.4154566
      ],
      [
       8.8949619,
       52.4153163
      ],
      [
       8.8951562,
       52.4151398
      ],
      [
       8.8951754,
       52.415079
      ],
      [
       8.8952377,
       52.4150904
      ],
      [
       8.8953111,
       52.4151056
      ],
      [
       8.8953445,
       52.415114
      ],
      [
       8.8964297,
       52.4142892
      ],
      [
       8.8965241,
       52.4142175
      ],
      [
       8.8966027,
       52.4141577
      ],
      [
       8.8973773,
       52.4135694
      ],
      [
       8.8973978,
       52.4135782
      ],
      [
       8.8974573,
       52.4135974
      ],
      [
       8.8985972,
       52.4118065
      ],
      [
       8.8986064,
       52.4117919
      ],
      [
       8.8986779,
       52.4117954
      ],
      [
       8.8986927,
       52.4117722
      ],
      [
       8.8987078,
       52.4117489
      ],
      [
       8.8999446,
       52.4118126
      ],
      [
       8.8999664,
       52.4117834
      ],
      [
       8.8999797,
       52.4117656
      ],
      [
       8.8999985,
       52.4117391
      ],
      [
       8.9030805,
       52.4073925
      ],
      [
       8.9031498,
       52.4073963
      ],
      [
       8.9052031,
       52.4075059
      ],
      [
       8.9057903,
       52.4075375
      ],
      [
       8.9069065,
       52.4075975
      ],
      [
       8.9070444,
       52.407605
      ],
      [
       8.9071125,
       52.4076086
      ],
      [
       8.9081217,
       52.4076628
      ],
      [
       8.9081196,
       52.4076814
      ],
      [
       8.9081187,
       52.4076898
      ],
      [
       8.9080936,
       52.4079236
      ],
      [
       8.9201383,
       52.4086477
      ],
      [
       8.9226824,
       52.4044502
      ],
      [
       8.9206465,
       52.4041244
      ],
      [
       8.9215106,
       52.4028657
      ],
      [
       8.921064,
       52.4028996
      ],
      [
       8.9126321,
       52.40374
      ],
      [
       8.9096371,
       52.4040185
      ],
      [
       8.906944,
       52.404187
      ],
      [
       8.9031866,
       52.4044689
      ],
      [
       8.9035585,
       52.4027601
      ],
      [
       8.9038535,
       52.4016232
      ],
      [
       8.900665,
       52.4015312
      ],
      [
       8.8999251,
       52.4015122
      ],
      [
       8.8977954,
       52.4014592
      ],
      [
       8.8972365,
       52.4040839
      ],
      [
       8.8962886,
       52.4055678
      ],
      [
       8.8960526,
       52.4059337
      ],
      [
       8.8941373,
       52.4059059
      ],
      [
       8.8932061,
       52.4058036
      ],
      [
       8.8929324,
       52.4057736
      ],
      [
       8.8925576,
       52.4057506
      ],
      [
       8.8924445,
       52.4057282
      ],
      [
       8.8923023,
       52.4057
      ],
      [
       8.8921352,
       52.4056084
      ],
      [
       8.8921571,
       52.4056039
      ],
      [
       8.8918651,
       52.4053901
      ],
      [
       8.8918044,
       52.405341
      ],
      [
       8.8915891,
       52.4051669
      ],
      [
       8.891488,
       52.4050763
      ],
      [
       8.8915357,
       52.4050581
      ],
      [
       8.8914279,
       52.4049014
      ],
      [
       8.8913317,
       52.4046678
      ],
      [
       8.8912902,
       52.4046742
      ],
      [
       8.8912605,
       52.4045912
      ],
      [
       8.8912543,
       52.4044444
      ],
      [
       8.8912153,
       52.4042244
      ],
      [
       8.8910408,
       52.4038533
      ],
      [
       8.890969,
       52.4037492
      ],
      [
       8.890927,
       52.4036816
      ],
      [
       8.8908264,
       52.4035079
      ],
      [
       8.8908145,
       52.4035025
      ],
      [
       8.8908607,
       52.4034119
      ],
      [
       8.8910779,
       52.4032028
      ],
      [
       8.8913356,
       52.4030564
      ],
      [
       8.8914326,
       52.4030013
      ],
      [
       8.891646,
       52.4029234
      ],
      [
       8.8917812,
       52.4028871
      ],
      [
       8.8917109,
       52.402737
      ],
      [
       8.8916544,
       52.4026693
      ],
      [
       8.8916084,
       52.4025251
      ],
      [
       8.8915559,
       52.4023583
      ],
      [
       8.8918071,
       52.4022991
      ],
      [
       8.892234,
       52.4021178
      ],
      [
       8.8922906,
       52.4020516
      ],
      [
       8.8920195,
       52.401351
      ],
      [
       8.8918984,
       52.4008595
      ],
      [
       8.8915118,
       52.4008855
      ],
      [
       8.8914001,
       52.4003807
      ],
      [
       8.8912997,
       52.4002786
      ],
      [
       8.8912888,
       52.4002124
      ],
      [
       8.8912845,
       52.4001863
      ],
      [
       8.8911973,
       52.4001248
      ],
      [
       8.8893586,
       52.4000099
      ],
      [
       8.8892558,
       52.3991794
      ],
      [
       8.8891752,
       52.3983245
      ],
      [
       8.8891528,
       52.3980716
      ],
      [
       8.8893038,
       52.3960008
      ],
      [
       8.887564,
       52.3962868
      ],
      [
       8.8838976,
       52.3964658
      ],
      [
       8.8838526,
       52.3960958
      ],
      [
       8.8833034,
       52.3961178
      ],
      [
       8.8830057,
       52.3961298
      ],
      [
       8.8828957,
       52.3959508
      ],
      [
       8.8831537,
       52.3958018
      ],
      [
       8.8828877,
       52.3950809
      ],
      [
       8.8827378,
       52.3951459
      ],
      [
       8.8820579,
       52.3954209
      ],
      [
       8.881511,
       52.3949019
      ],
      [
       8.881219,
       52.3949209
      ],
      [
       8.8801172,
       52.3952989
      ],
      [
       8.8799192,
       52.3953559
      ],
      [
       8.8795692,
       52.3953629
      ],
      [
       8.8792003,
       52.3953479
      ],
      [
       8.8789103,
       52.3953059
      ],
      [
       8.8771736,
       52.3949129
      ],
      [
       8.8774536,
       52.394143
      ],
      [
       8.8738478,
       52.3942865
      ],
      [
       8.8718915,
       52.3939355
      ],
      [
       8.8706997,
       52.3935548
      ],
      [
       8.8713338,
       52.3931566
      ],
      [
       8.8712853,
       52.3931204
      ],
      [
       8.8702695,
       52.3929969
      ],
      [
       8.8701948,
       52.3929861
      ],
      [
       8.8695187,
       52.3928886
      ],
      [
       8.8690985,
       52.392828
      ],
      [
       8.8673449,
       52.3926102
      ],
      [
       8.8672668,
       52.3927824
      ],
      [
       8.8673023,
       52.3928288
      ],
      [
       8.8672936,
       52.3928729
      ],
      [
       8.8672468,
       52.3928851
      ],
      [
       8.8672609,
       52.3929182
      ],
      [
       8.8675004,
       52.3929683
      ],
      [
       8.8678663,
       52.3931195
      ],
      [
       8.8680169,
       52.3931799
      ],
      [
       8.8678035,
       52.3933333
      ],
      [
       8.8675292,
       52.3935324
      ],
      [
       8.8674889,
       52.3935636
      ],
      [
       8.8698447,
       52.3947569
      ]
     ]
    ]
   }
  },
  {
   "type": "Feature",
   "properties": {
    "name": "Großenvörde",
    "admin_level": 10,
    "osm_relation": 2991042,
    "anteil_in_gemeinde": 0.998,
    "flaeche_km2": 14.405
   },
   "geometry": {
    "type": "Polygon",
    "coordinates": [
     [
      [
       8.8629267,
       52.438716
      ],
      [
       8.8629866,
       52.4396086
      ],
      [
       8.8638103,
       52.4395903
      ],
      [
       8.8640308,
       52.4395857
      ],
      [
       8.8643442,
       52.4395925
      ],
      [
       8.8646249,
       52.4396015
      ],
      [
       8.8649021,
       52.4396626
      ],
      [
       8.8651725,
       52.4397347
      ],
      [
       8.8655733,
       52.4398411
      ],
      [
       8.8659018,
       52.4399283
      ],
      [
       8.8658032,
       52.4400903
      ],
      [
       8.8663792,
       52.4401564
      ],
      [
       8.8659669,
       52.4406235
      ],
      [
       8.8658717,
       52.4407314
      ],
      [
       8.8654339,
       52.4412274
      ],
      [
       8.8654084,
       52.4412564
      ],
      [
       8.8650349,
       52.4416792
      ],
      [
       8.8648833,
       52.4418538
      ],
      [
       8.8647672,
       52.4419859
      ],
      [
       8.8646992,
       52.442066
      ],
      [
       8.8645099,
       52.442296
      ],
      [
       8.8643714,
       52.4426254
      ],
      [
       8.864276,
       52.4426627
      ],
      [
       8.8641977,
       52.4428827
      ],
      [
       8.8642799,
       52.4429814
      ],
      [
       8.8643321,
       52.4430351
      ],
      [
       8.8644318,
       52.4433615
      ],
      [
       8.864437,
       52.4437819
      ],
      [
       8.865363,
       52.4437495
      ],
      [
       8.8652862,
       52.4441973
      ],
      [
       8.8651535,
       52.4441817
      ],
      [
       8.8644647,
       52.4441008
      ],
      [
       8.8643119,
       52.4443473
      ],
      [
       8.8642879,
       52.4444735
      ],
      [
       8.8642435,
       52.4447066
      ],
      [
       8.8643736,
       52.4452543
      ],
      [
       8.8643737,
       52.4452549
      ],
      [
       8.8644088,
       52.4453815
      ],
      [
       8.8645546,
       52.4458671
      ],
      [
       8.8645966,
       52.4460069
      ],
      [
       8.8633564,
       52.4458576
      ],
      [
       8.8639569,
       52.4466972
      ],
      [
       8.8644667,
       52.44741
      ],
      [
       8.8645262,
       52.4474932
      ],
      [
       8.8645579,
       52.4480266
      ],
      [
       8.8645964,
       52.4480387
      ],
      [
       8.8646477,
       52.4480545
      ],
      [
       8.8654748,
       52.4477131
      ],
      [
       8.8655845,
       52.4476678
      ],
      [
       8.8655914,
       52.4476778
      ],
      [
       8.8656126,
       52.4477084
      ],
      [
       8.8656513,
       52.4477671
      ],
      [
       8.8656676,
       52.4477892
      ],
      [
       8.8658004,
       52.4477338
      ],
      [
       8.8658394,
       52.4477216
      ],
      [
       8.8658817,
       52.4477056
      ],
      [
       8.8659186,
       52.4476916
      ],
      [
       8.8660684,
       52.4476409
      ],
      [
       8.866214,
       52.4476065
      ],
      [
       8.8663517,
       52.4475912
      ],
      [
       8.8668537,
       52.4476111
      ],
      [
       8.8669742,
       52.4476148
      ],
      [
       8.8669981,
       52.4477453
      ],
      [
       8.8670077,
       52.4479272
      ],
      [
       8.8670465,
       52.4480966
      ],
      [
       8.8670666,
       52.4481843
      ],
      [
       8.8671353,
       52.4484479
      ],
      [
       8.8672178,
       52.4485794
      ],
      [
       8.8675088,
       52.449402
      ],
      [
       8.8675475,
       52.4497139
      ],
      [
       8.8675272,
       52.4498046
      ],
      [
       8.8674893,
       52.449941
      ],
      [
       8.8674652,
       52.4500679
      ],
      [
       8.8675167,
       52.4502311
      ],
      [
       8.8675733,
       52.4504104
      ],
      [
       8.867549,
       52.4506803
      ],
      [
       8.8675567,
       52.4507977
      ],
      [
       8.8675702,
       52.4507975
      ],
      [
       8.8675126,
       52.4508927
      ],
      [
       8.8675095,
       52.450946
      ],
      [
       8.8670033,
       52.4517594
      ],
      [
       8.8669239,
       52.4519122
      ],
      [
       8.8667982,
       52.4522053
      ],
      [
       8.8663016,
       52.4530085
      ],
      [
       8.8662116,
       52.4530078
      ],
      [
       8.8661958,
       52.4530077
      ],
      [
       8.8661708,
       52.4530078
      ],
      [
       8.8661844,
       52.4530525
      ],
      [
       8.8661973,
       52.4530948
      ],
      [
       8.866334,
       52.4530909
      ],
      [
       8.8671118,
       52.4532618
      ],
      [
       8.8671935,
       52.4532923
      ],
      [
       8.8680789,
       52.453602
      ],
      [
       8.868261,
       52.4536657
      ],
      [
       8.8683652,
       52.4537038
      ],
      [
       8.8684334,
       52.4537428
      ],
      [
       8.8684717,
       52.4537943
      ],
      [
       8.8685189,
       52.4538826
      ],
      [
       8.868861,
       52.4545227
      ],
      [
       8.8689519,
       52.4546927
      ],
      [
       8.8696347,
       52.45597
      ],
      [
       8.8696228,
       52.456025
      ],
      [
       8.8693826,
       52.4564136
      ],
      [
       8.8691656,
       52.4567734
      ],
      [
       8.8685155,
       52.4578317
      ],
      [
       8.8679514,
       52.4587432
      ],
      [
       8.8665609,
       52.4610051
      ],
      [
       8.8665721,
       52.4610587
      ],
      [
       8.8674991,
       52.4613524
      ],
      [
       8.8682354,
       52.4615857
      ],
      [
       8.8682826,
       52.4616163
      ],
      [
       8.8682929,
       52.4616573
      ],
      [
       8.8688419,
       52.4618298
      ],
      [
       8.8689955,
       52.461878
      ],
      [
       8.8703251,
       52.4622955
      ],
      [
       8.8704023,
       52.4623198
      ],
      [
       8.8718611,
       52.4627786
      ],
      [
       8.8719343,
       52.4628381
      ],
      [
       8.8731941,
       52.4638654
      ],
      [
       8.8732337,
       52.4638977
      ],
      [
       8.8732999,
       52.4639518
      ],
      [
       8.8733569,
       52.4637115
      ],
      [
       8.8733878,
       52.4637141
      ],
      [
       8.8734293,
       52.4637175
      ],
      [
       8.8733682,
       52.463955
      ],
      [
       8.8733797,
       52.4639809
      ],
      [
       8.8738521,
       52.464369
      ],
      [
       8.873924,
       52.4644281
      ],
      [
       8.8740362,
       52.4645203
      ],
      [
       8.8753307,
       52.4655832
      ],
      [
       8.8753294,
       52.4655853
      ],
      [
       8.8753171,
       52.465607
      ],
      [
       8.8752803,
       52.465672
      ],
      [
       8.8745009,
       52.467035
      ],
      [
       8.8739688,
       52.4679475
      ],
      [
       8.8738598,
       52.4681341
      ],
      [
       8.873585,
       52.4686065
      ],
      [
       8.8742419,
       52.4689823
      ],
      [
       8.8742159,
       52.4690012
      ],
      [
       8.8742531,
       52.4690185
      ],
      [
       8.8743397,
       52.4690706
      ],
      [
       8.8744126,
       52.4691146
      ],
      [
       8.8745225,
       52.4691436
      ],
      [
       8.8747126,
       52.4692092
      ],
      [
       8.8748818,
       52.4692938
      ],
      [
       8.8749772,
       52.4693391
      ],
      [
       8.8750866,
       52.469391
      ],
      [
       8.8751713,
       52.4694573
      ],
      [
       8.8752872,
       52.4695571
      ],
      [
       8.8754272,
       52.4697442
      ],
      [
       8.875681,
       52.4699938
      ],
      [
       8.8760327,
       52.4700491
      ],
      [
       8.8760524,
       52.4700521
      ],
      [
       8.8761689,
       52.4700453
      ],
      [
       8.8762269,
       52.4700418
      ],
      [
       8.8762881,
       52.4700116
      ],
      [
       8.8762978,
       52.4700067
      ],
      [
       8.8765073,
       52.4699841
      ],
      [
       8.8767339,
       52.4699645
      ],
      [
       8.8770395,
       52.4699239
      ],
      [
       8.8774438,
       52.4698629
      ],
      [
       8.8776376,
       52.4698113
      ],
      [
       8.8777046,
       52.4697935
      ],
      [
       8.8777987,
       52.4697788
      ],
      [
       8.8778498,
       52.4698077
      ],
      [
       8.8778952,
       52.4698892
      ],
      [
       8.8779503,
       52.4699676
      ],
      [
       8.8780485,
       52.4701118
      ],
      [
       8.8781151,
       52.4702096
      ],
      [
       8.8781662,
       52.470285
      ],
      [
       8.878301,
       52.4704943
      ],
      [
       8.8783175,
       52.4705788
      ],
      [
       8.8782947,
       52.4706493
      ],
      [
       8.8782838,
       52.4706985
      ],
      [
       8.8783933,
       52.4707345
      ],
      [
       8.8784729,
       52.4707338
      ],
      [
       8.8785196,
       52.4707334
      ],
      [
       8.8786323,
       52.4706988
      ],
      [
       8.8786516,
       52.4706929
      ],
      [
       8.8787431,
       52.4706463
      ],
      [
       8.87885,
       52.4706179
      ],
      [
       8.8789494,
       52.4705925
      ],
      [
       8.879126,
       52.4705467
      ],
      [
       8.8792599,
       52.4704957
      ],
      [
       8.8796169,
       52.4703598
      ],
      [
       8.8796838,
       52.4703344
      ],
      [
       8.8797891,
       52.4702942
      ],
      [
       8.8798173,
       52.4702711
      ],
      [
       8.8798724,
       52.4702947
      ],
      [
       8.8799117,
       52.4703135
      ],
      [
       8.8799649,
       52.4703384
      ],
      [
       8.8808463,
       52.4696162
      ],
      [
       8.8815054,
       52.469076
      ],
      [
       8.8820201,
       52.4687735
      ],
      [
       8.8820554,
       52.4687527
      ],
      [
       8.8820946,
       52.4687295
      ],
      [
       8.8831536,
       52.4681065
      ],
      [
       8.8833399,
       52.4679489
      ],
      [
       8.8840474,
       52.4673504
      ],
      [
       8.8845884,
       52.4668926
      ],
      [
       8.8851127,
       52.4664491
      ],
      [
       8.8852115,
       52.4663815
      ],
      [
       8.8851958,
       52.4663412
      ],
      [
       8.8851853,
       52.4663142
      ],
      [
       8.8851686,
       52.4662713
      ],
      [
       8.8852733,
       52.4642345
      ],
      [
       8.8852743,
       52.4642155
      ],
      [
       8.8867601,
       52.4642441
      ],
      [
       8.8868484,
       52.4642458
      ],
      [
       8.8868823,
       52.4636181
      ],
      [
       8.8869033,
       52.4632088
      ],
      [
       8.886959,
       52.4620906
      ],
      [
       8.886975,
       52.461783
      ],
      [
       8.8869908,
       52.4615037
      ],
      [
       8.8870023,
       52.4612801
      ],
      [
       8.8870204,
       52.4609122
      ],
      [
       8.887222,
       52.4609542
      ],
      [
       8.8872003,
       52.4608788
      ],
      [
       8.8871934,
       52.4608548
      ],
      [
       8.8871886,
       52.4608384
      ],
      [
       8.8887029,
       52.4606506
      ],
      [
       8.889382,
       52.4606235
      ],
      [
       8.8902554,
       52.4608516
      ],
      [
       8.8914926,
       52.4603848
      ],
      [
       8.8914958,
       52.4603489
      ],
      [
       8.8915568,
       52.4596785
      ],
      [
       8.8916912,
       52.4581813
      ],
      [
       8.8917585,
       52.4574688
      ],
      [
       8.8917141,
       52.4573498
      ],
      [
       8.8917171,
       52.4573177
      ],
      [
       8.89172,
       52.4572868
      ],
      [
       8.8917229,
       52.4572555
      ],
      [
       8.8919537,
       52.4572636
      ],
      [
       8.8920395,
       52.4572666
      ],
      [
       8.8921555,
       52.4572707
      ],
      [
       8.8932389,
       52.4573083
      ],
      [
       8.8938834,
       52.4562982
      ],
      [
       8.8939374,
       52.456217
      ],
      [
       8.8939777,
       52.4561514
      ],
      [
       8.8948997,
       52.4547161
      ],
      [
       8.894914,
       52.4546887
      ],
      [
       8.8949225,
       52.4546724
      ],
      [
       8.8949335,
       52.4546512
      ],
      [
       8.8949998,
       52.4547156
      ],
      [
       8.8950025,
       52.4547005
      ],
      [
       8.8950106,
       52.4546557
      ],
      [
       8.8953666,
       52.4510076
      ],
      [
       8.8954062,
       52.4510093
      ],
      [
       8.8954376,
       52.4510105
      ],
      [
       8.895443,
       52.4510108
      ],
      [
       8.8954668,
       52.4510113
      ],
      [
       8.8976403,
       52.4510939
      ],
      [
       8.8976501,
       52.4510942
      ],
      [
       8.8981636,
       52.4519854
      ],
      [
       8.8981794,
       52.4520128
      ],
      [
       8.8981897,
       52.4520308
      ],
      [
       8.8985618,
       52.4518224
      ],
      [
       8.8986219,
       52.4517888
      ],
      [
       8.8987653,
       52.4517083
      ],
      [
       8.8996185,
       52.4512293
      ],
      [
       8.89983,
       52.4511105
      ],
      [
       8.9001309,
       52.4510564
      ],
      [
       8.901547,
       52.4508021
      ],
      [
       8.9027559,
       52.4505851
      ],
      [
       8.9042347,
       52.4503195
      ],
      [
       8.9057858,
       52.4500411
      ],
      [
       8.9070377,
       52.4498163
      ],
      [
       8.9075855,
       52.449718
      ],
      [
       8.9075941,
       52.4497077
      ],
      [
       8.9076185,
       52.4496716
      ],
      [
       8.9076298,
       52.4496548
      ],
      [
       8.9067766,
       52.448158
      ],
      [
       8.9067511,
       52.4481133
      ],
      [
       8.9118675,
       52.4471855
      ],
      [
       8.9122554,
       52.4471022
      ],
      [
       8.9200971,
       52.4451474
      ],
      [
       8.9200729,
       52.4450246
      ],
      [
       8.9198108,
       52.4433613
      ],
      [
       8.9197927,
       52.443246
      ],
      [
       8.9197797,
       52.4431631
      ],
      [
       8.9197243,
       52.4428092
      ],
      [
       8.9197011,
       52.4426388
      ],
      [
       8.9196054,
       52.4420359
      ],
      [
       8.9195059,
       52.4414095
      ],
      [
       8.9194789,
       52.4412398
      ],
      [
       8.9194729,
       52.4412019
      ],
      [
       8.9193774,
       52.4406001
      ],
      [
       8.9193741,
       52.4405797
      ],
      [
       8.9191607,
       52.4392358
      ],
      [
       8.9191545,
       52.4391966
      ],
      [
       8.9190084,
       52.4382763
      ],
      [
       8.9188928,
       52.4381982
      ],
      [
       8.9190067,
       52.4382251
      ],
      [
       8.9190047,
       52.4381625
      ],
      [
       8.9190034,
       52.4381168
      ],
      [
       8.9190025,
       52.43808
      ],
      [
       8.9188952,
       52.4380582
      ],
      [
       8.9189314,
       52.4380417
      ],
      [
       8.9189752,
       52.4380219
      ],
      [
       8.9190005,
       52.4380104
      ],
      [
       8.9191148,
       52.4370381
      ],
      [
       8.9191292,
       52.4369184
      ],
      [
       8.9191851,
       52.4364559
      ],
      [
       8.9191854,
       52.4364528
      ],
      [
       8.9191856,
       52.4364515
      ],
      [
       8.9191938,
       52.4363862
      ],
      [
       8.9192042,
       52.4363024
      ],
      [
       8.9192043,
       52.4363018
      ],
      [
       8.9192083,
       52.4362735
      ],
      [
       8.9192143,
       52.4362302
      ],
      [
       8.9192195,
       52.4361928
      ],
      [
       8.9193414,
       52.4361527
      ],
      [
       8.9194631,
       52.4361128
      ],
      [
       8.9198754,
       52.435978
      ],
      [
       8.9200981,
       52.4359025
      ],
      [
       8.9205689,
       52.4358886
      ],
      [
       8.9208299,
       52.4358809
      ],
      [
       8.9209506,
       52.4358773
      ],
      [
       8.9216043,
       52.4358579
      ],
      [
       8.9224283,
       52.4358335
      ],
      [
       8.9225347,
       52.4357331
      ],
      [
       8.9226862,
       52.4354452
      ],
      [
       8.9233146,
       52.4342529
      ],
      [
       8.9233753,
       52.434235
      ],
      [
       8.9234103,
       52.4342247
      ],
      [
       8.923451,
       52.4342128
      ],
      [
       8.9235033,
       52.4341974
      ],
      [
       8.9249459,
       52.433774
      ],
      [
       8.9250898,
       52.4337318
      ],
      [
       8.9251709,
       52.4337081
      ],
      [
       8.9253401,
       52.4336584
      ],
      [
       8.9257009,
       52.4336392
      ],
      [
       8.9256377,
       52.4334008
      ],
      [
       8.9256036,
       52.4333984
      ],
      [
       8.9255288,
       52.4329859
      ],
      [
       8.9255061,
       52.4328226
      ],
      [
       8.9254958,
       52.4327486
      ],
      [
       8.9254843,
       52.4326674
      ],
      [
       8.9253328,
       52.4326574
      ],
      [
       8.9252318,
       52.432647
      ],
      [
       8.9251949,
       52.4326174
      ],
      [
       8.9251736,
       52.4325226
      ],
      [
       8.9251698,
       52.4325059
      ],
      [
       8.9251594,
       52.4324602
      ],
      [
       8.9251342,
       52.4323488
      ],
      [
       8.9251223,
       52.4322691
      ],
      [
       8.9251191,
       52.4322475
      ],
      [
       8.9250922,
       52.4320681
      ],
      [
       8.9250614,
       52.4318625
      ],
      [
       8.9251133,
       52.4318586
      ],
      [
       8.9251055,
       52.4317999
      ],
      [
       8.9250763,
       52.4315814
      ],
      [
       8.925056,
       52.4315047
      ],
      [
       8.9250525,
       52.4313616
      ],
      [
       8.9250334,
       52.4313076
      ],
      [
       8.9251032,
       52.4312993
      ],
      [
       8.9250317,
       52.4309402
      ],
      [
       8.9250085,
       52.4308396
      ],
      [
       8.9249917,
       52.4308384
      ],
      [
       8.9249659,
       52.4306418
      ],
      [
       8.9249371,
       52.4302382
      ],
      [
       8.9249361,
       52.4302243
      ],
      [
       8.9254376,
       52.4302078
      ],
      [
       8.9255734,
       52.4302064
      ],
      [
       8.9255697,
       52.4300827
      ],
      [
       8.9255295,
       52.4299308
      ],
      [
       8.925524,
       52.4299099
      ],
      [
       8.9255223,
       52.4298037
      ],
      [
       8.9254918,
       52.4296277
      ],
      [
       8.9254856,
       52.4295919
      ],
      [
       8.9254803,
       52.4295616
      ],
      [
       8.9254722,
       52.4295144
      ],
      [
       8.9254287,
       52.4292632
      ],
      [
       8.9254176,
       52.4291987
      ],
      [
       8.9254137,
       52.4291762
      ],
      [
       8.9254056,
       52.4291294
      ],
      [
       8.9253618,
       52.4288764
      ],
      [
       8.9255961,
       52.4288321
      ],
      [
       8.9256285,
       52.4286982
      ],
      [
       8.9255842,
       52.4286209
      ],
      [
       8.925638,
       52.4286186
      ],
      [
       8.9256084,
       52.428551
      ],
      [
       8.9255516,
       52.4284213
      ],
      [
       8.9255576,
       52.4283558
      ],
      [
       8.9255585,
       52.4283458
      ],
      [
       8.9252499,
       52.4283682
      ],
      [
       8.9248579,
       52.4284329
      ],
      [
       8.9246249,
       52.4284948
      ],
      [
       8.9236525,
       52.4286372
      ],
      [
       8.9233678,
       52.4286789
      ],
      [
       8.9234725,
       52.4287859
      ],
      [
       8.9235815,
       52.428972
      ],
      [
       8.9236411,
       52.4292249
      ],
      [
       8.922632,
       52.4292204
      ],
      [
       8.9220122,
       52.4291826
      ],
      [
       8.9218238,
       52.4291918
      ],
      [
       8.9214124,
       52.4291741
      ],
      [
       8.9213468,
       52.4291725
      ],
      [
       8.9213321,
       52.4292092
      ],
      [
       8.9213356,
       52.4292183
      ],
      [
       8.921368,
       52.429304
      ],
      [
       8.9214919,
       52.4294442
      ],
      [
       8.9216266,
       52.4295751
      ],
      [
       8.9216569,
       52.4297637
      ],
      [
       8.921632,
       52.4297973
      ],
      [
       8.9216064,
       52.4298319
      ],
      [
       8.9215261,
       52.4298847
      ],
      [
       8.9214575,
       52.4299208
      ],
      [
       8.9214339,
       52.4299579
      ],
      [
       8.9214882,
       52.4300353
      ],
      [
       8.9214998,
       52.4300519
      ],
      [
       8.9215592,
       52.4300534
      ],
      [
       8.92161,
       52.4302002
      ],
      [
       8.9216027,
       52.4302437
      ],
      [
       8.9216248,
       52.4303066
      ],
      [
       8.9214825,
       52.4303928
      ],
      [
       8.9213165,
       52.4304558
      ],
      [
       8.9211391,
       52.4304581
      ],
      [
       8.921093,
       52.430453
      ],
      [
       8.9204344,
       52.4303794
      ],
      [
       8.9200898,
       52.4303525
      ],
      [
       8.9197409,
       52.4303087
      ],
      [
       8.9196335,
       52.4302818
      ],
      [
       8.9194933,
       52.4302815
      ],
      [
       8.9192579,
       52.4302484
      ],
      [
       8.918564,
       52.430202
      ],
      [
       8.9185373,
       52.4302002
      ],
      [
       8.9184499,
       52.4301909
      ],
      [
       8.917866,
       52.4301709
      ],
      [
       8.9177499,
       52.430167
      ],
      [
       8.9176026,
       52.4301649
      ],
      [
       8.9175557,
       52.4301326
      ],
      [
       8.9174522,
       52.4301459
      ],
      [
       8.9174189,
       52.4300747
      ],
      [
       8.9174173,
       52.4300661
      ],
      [
       8.9173958,
       52.4299536
      ],
      [
       8.9173227,
       52.4297733
      ],
      [
       8.9173189,
       52.4296929
      ],
      [
       8.9173111,
       52.4295746
      ],
      [
       8.9172781,
       52.4294093
      ],
      [
       8.9172797,
       52.4292774
      ],
      [
       8.9173039,
       52.4292225
      ],
      [
       8.9173352,
       52.4291713
      ],
      [
       8.9172685,
       52.4291573
      ],
      [
       8.9171483,
       52.4291515
      ],
      [
       8.916912,
       52.4290678
      ],
      [
       8.9168635,
       52.4290366
      ],
      [
       8.9166567,
       52.4289462
      ],
      [
       8.9164728,
       52.4288516
      ],
      [
       8.9164397,
       52.4288769
      ],
      [
       8.9160677,
       52.4290998
      ],
      [
       8.9160433,
       52.4291099
      ],
      [
       8.9159911,
       52.4291316
      ],
      [
       8.9157697,
       52.4292229
      ],
      [
       8.9156956,
       52.4292759
      ],
      [
       8.9149985,
       52.4296045
      ],
      [
       8.9148524,
       52.4296734
      ],
      [
       8.91483,
       52.4296859
      ],
      [
       8.9147441,
       52.4297339
      ],
      [
       8.9147229,
       52.4297458
      ],
      [
       8.91464,
       52.4297531
      ],
      [
       8.914532,
       52.4297469
      ],
      [
       8.9144183,
       52.4297402
      ],
      [
       8.9141905,
       52.4297079
      ],
      [
       8.9138357,
       52.4297064
      ],
      [
       8.9133873,
       52.4297301
      ],
      [
       8.9132641,
       52.4297582
      ],
      [
       8.9130029,
       52.4298178
      ],
      [
       8.9127434,
       52.4297558
      ],
      [
       8.9126702,
       52.4297344
      ],
      [
       8.9125761,
       52.4297069
      ],
      [
       8.9125495,
       52.4297064
      ],
      [
       8.9122842,
       52.4297013
      ],
      [
       8.9121379,
       52.4296971
      ],
      [
       8.9121345,
       52.4297405
      ],
      [
       8.9118154,
       52.4297224
      ],
      [
       8.9118105,
       52.4296651
      ],
      [
       8.911719,
       52.4296544
      ],
      [
       8.9116365,
       52.4296447
      ],
      [
       8.9112325,
       52.4295423
      ],
      [
       8.9109229,
       52.4294714
      ],
      [
       8.9108034,
       52.429444
      ],
      [
       8.9107191,
       52.4292806
      ],
      [
       8.9080851,
       52.4291361
      ],
      [
       8.9080156,
       52.4291317
      ],
      [
       8.907913,
       52.4300622
      ],
      [
       8.9077645,
       52.4300156
      ],
      [
       8.9058624,
       52.4281351
      ],
      [
       8.905792,
       52.4280655
      ],
      [
       8.9064688,
       52.4221476
      ],
      [
       8.9065312,
       52.4215951
      ],
      [
       8.9073118,
       52.4148428
      ],
      [
       8.9075927,
       52.4123493
      ],
      [
       8.90759,
       52.4122871
      ],
      [
       8.9075762,
       52.4122404
      ],
      [
       8.9075589,
       52.4121865
      ],
      [
       8.9075538,
       52.4121698
      ],
      [
       8.9076129,
       52.4121729
      ],
      [
       8.9076134,
       52.4121663
      ],
      [
       8.9076152,
       52.4121485
      ],
      [
       8.9076161,
       52.4121397
      ],
      [
       8.9076887,
       52.4114992
      ],
      [
       8.9077261,
       52.4111696
      ],
      [
       8.9077303,
       52.4111331
      ],
      [
       8.9078924,
       52.4097126
      ],
      [
       8.9079295,
       52.4093852
      ],
      [
       8.9080189,
       52.4085895
      ],
      [
       8.9080829,
       52.4080179
      ],
      [
       8.9080849,
       52.4079999
      ],
      [
       8.9080936,
       52.4079236
      ],
      [
       8.9081187,
       52.4076898
      ],
      [
       8.9081196,
       52.4076814
      ],
      [
       8.9081217,
       52.4076628
      ],
      [
       8.9071125,
       52.4076086
      ],
      [
       8.9070444,
       52.407605
      ],
      [
       8.9069065,
       52.4075975
      ],
      [
       8.9057903,
       52.4075375
      ],
      [
       8.9052031,
       52.4075059
      ],
      [
       8.9031498,
       52.4073963
      ],
      [
       8.9030805,
       52.4073925
      ],
      [
       8.8999985,
       52.4117391
      ],
      [
       8.8999797,
       52.4117656
      ],
      [
       8.8999664,
       52.4117834
      ],
      [
       8.8999446,
       52.4118126
      ],
      [
       8.8987078,
       52.4117489
      ],
      [
       8.8986927,
       52.4117722
      ],
      [
       8.8986779,
       52.4117954
      ],
      [
       8.8986064,
       52.4117919
      ],
      [
       8.8985972,
       52.4118065
      ],
      [
       8.8974573,
       52.4135974
      ],
      [
       8.8973978,
       52.4135782
      ],
      [
       8.8973773,
       52.4135694
      ],
      [
       8.8966027,
       52.4141577
      ],
      [
       8.8965241,
       52.4142175
      ],
      [
       8.8964297,
       52.4142892
      ],
      [
       8.8953445,
       52.415114
      ],
      [
       8.8953111,
       52.4151056
      ],
      [
       8.8952377,
       52.4150904
      ],
      [
       8.8951754,
       52.415079
      ],
      [
       8.8951562,
       52.4151398
      ],
      [
       8.8949619,
       52.4153163
      ],
      [
       8.8948431,
       52.4154566
      ],
      [
       8.8946818,
       52.4156469
      ],
      [
       8.894615,
       52.4156368
      ],
      [
       8.8942574,
       52.4154779
      ],
      [
       8.8939436,
       52.4153385
      ],
      [
       8.8937804,
       52.4153292
      ],
      [
       8.89355,
       52.4154115
      ],
      [
       8.8932542,
       52.4149658
      ],
      [
       8.8932357,
       52.4149666
      ],
      [
       8.8923532,
       52.4153561
      ],
      [
       8.8923862,
       52.4153764
      ],
      [
       8.8923374,
       52.4153977
      ],
      [
       8.892314,
       52.4154084
      ],
      [
       8.8922978,
       52.4154169
      ],
      [
       8.892205,
       52.4153587
      ],
      [
       8.8921598,
       52.4153645
      ],
      [
       8.8916435,
       52.4154302
      ],
      [
       8.891565,
       52.4154401
      ],
      [
       8.8910955,
       52.4153985
      ],
      [
       8.8904138,
       52.415338
      ],
      [
       8.8896237,
       52.4150543
      ],
      [
       8.8896329,
       52.4150742
      ],
      [
       8.889822,
       52.4154831
      ],
      [
       8.8894155,
       52.4156213
      ],
      [
       8.8893803,
       52.4156416
      ],
      [
       8.8893822,
       52.415656
      ],
      [
       8.8893715,
       52.4156736
      ],
      [
       8.8894334,
       52.4157468
      ],
      [
       8.8902403,
       52.4166998
      ],
      [
       8.8903343,
       52.4169542
      ],
      [
       8.8904727,
       52.4173032
      ],
      [
       8.8907499,
       52.4179899
      ],
      [
       8.8907664,
       52.4180314
      ],
      [
       8.8902206,
       52.4180816
      ],
      [
       8.8897935,
       52.4181182
      ],
      [
       8.8888955,
       52.4182008
      ],
      [
       8.888073,
       52.4182772
      ],
      [
       8.8872278,
       52.4183549
      ],
      [
       8.8872437,
       52.4183837
      ],
      [
       8.8872478,
       52.4183913
      ],
      [
       8.8858563,
       52.4185194
      ],
      [
       8.8858099,
       52.4185235
      ],
      [
       8.8857511,
       52.4185288
      ],
      [
       8.8857246,
       52.4185311
      ],
      [
       8.885683,
       52.4185351
      ],
      [
       8.8850873,
       52.4185898
      ],
      [
       8.8848575,
       52.4186109
      ],
      [
       8.8837631,
       52.4187115
      ],
      [
       8.8818603,
       52.4188864
      ],
      [
       8.8811693,
       52.4189499
      ],
      [
       8.8803931,
       52.4190213
      ],
      [
       8.8803665,
       52.4190247
      ],
      [
       8.87949,
       52.4191053
      ],
      [
       8.8777392,
       52.4192664
      ],
      [
       8.8777042,
       52.4192696
      ],
      [
       8.8776543,
       52.4192742
      ],
      [
       8.8791278,
       52.4274637
      ],
      [
       8.8790949,
       52.427458
      ],
      [
       8.8790465,
       52.4274496
      ],
      [
       8.8790677,
       52.4273965
      ],
      [
       8.8790361,
       52.427401
      ],
      [
       8.8789849,
       52.4274085
      ],
      [
       8.8773222,
       52.4270304
      ],
      [
       8.8762717,
       52.4268001
      ],
      [
       8.876221,
       52.426804
      ],
      [
       8.8761643,
       52.4268257
      ],
      [
       8.8761211,
       52.4268657
      ],
      [
       8.8755584,
       52.4273874
      ],
      [
       8.8754998,
       52.4273896
      ],
      [
       8.8748437,
       52.4274144
      ],
      [
       8.8728453,
       52.4274949
      ],
      [
       8.8723178,
       52.4275911
      ],
      [
       8.8721256,
       52.4276323
      ],
      [
       8.8720826,
       52.4276413
      ],
      [
       8.8720482,
       52.4276763
      ],
      [
       8.8719583,
       52.4284768
      ],
      [
       8.8720093,
       52.4285283
      ],
      [
       8.872074,
       52.4285372
      ],
      [
       8.8730416,
       52.4285595
      ],
      [
       8.8730888,
       52.428566
      ],
      [
       8.8731103,
       52.4285951
      ],
      [
       8.8733227,
       52.4291326
      ],
      [
       8.8733654,
       52.4291081
      ],
      [
       8.8737547,
       52.4300768
      ],
      [
       8.8748578,
       52.4300212
      ],
      [
       8.8751351,
       52.4300071
      ],
      [
       8.8751801,
       52.4300049
      ],
      [
       8.875179,
       52.429995
      ],
      [
       8.8752156,
       52.4299964
      ],
      [
       8.8771603,
       52.4300936
      ],
      [
       8.8771947,
       52.4301443
      ],
      [
       8.877286,
       52.4302227
      ],
      [
       8.8760771,
       52.4310065
      ],
      [
       8.875018,
       52.4316925
      ],
      [
       8.8742057,
       52.4322185
      ],
      [
       8.8735011,
       52.4326748
      ],
      [
       8.8729471,
       52.4330336
      ],
      [
       8.87298,
       52.4331147
      ],
      [
       8.8728809,
       52.4330764
      ],
      [
       8.8728419,
       52.4331016
      ],
      [
       8.8728058,
       52.4331248
      ],
      [
       8.8727602,
       52.4331541
      ],
      [
       8.8726284,
       52.4331019
      ],
      [
       8.8717278,
       52.4327595
      ],
      [
       8.8716959,
       52.4327474
      ],
      [
       8.8716264,
       52.432716
      ],
      [
       8.8715499,
       52.4326863
      ],
      [
       8.8705738,
       52.4332807
      ],
      [
       8.8703698,
       52.4334049
      ],
      [
       8.8697587,
       52.433777
      ],
      [
       8.8697035,
       52.4338106
      ],
      [
       8.8696377,
       52.4338506
      ],
      [
       8.8695483,
       52.4339048
      ],
      [
       8.8694984,
       52.4339457
      ],
      [
       8.8693093,
       52.4347762
      ],
      [
       8.8691356,
       52.4355648
      ],
      [
       8.8680134,
       52.4353346
      ],
      [
       8.8679678,
       52.4353253
      ],
      [
       8.866919,
       52.4351102
      ],
      [
       8.8666095,
       52.4350468
      ],
      [
       8.866161,
       52.4349548
      ],
      [
       8.8650858,
       52.4347344
      ],
      [
       8.8650358,
       52.4347241
      ],
      [
       8.865016,
       52.43472
      ],
      [
       8.8630156,
       52.4343049
      ],
      [
       8.8629987,
       52.4343015
      ],
      [
       8.8621394,
       52.4341281
      ],
      [
       8.8618384,
       52.4340675
      ],
      [
       8.8604357,
       52.4337796
      ],
      [
       8.8603841,
       52.4337715
      ],
      [
       8.860352,
       52.4337664
      ],
      [
       8.8598974,
       52.4357607
      ],
      [
       8.8598346,
       52.435749
      ],
      [
       8.8598211,
       52.4357464
      ],
      [
       8.8598061,
       52.4358026
      ],
      [
       8.8599103,
       52.4358216
      ],
      [
       8.8601119,
       52.4358584
      ],
      [
       8.8618942,
       52.4362248
      ],
      [
       8.8621894,
       52.4362855
      ],
      [
       8.8633356,
       52.4365211
      ],
      [
       8.8634616,
       52.436547
      ],
      [
       8.8646949,
       52.4368005
      ],
      [
       8.8654826,
       52.4369784
      ],
      [
       8.8666235,
       52.4371621
      ],
      [
       8.8666537,
       52.437167
      ],
      [
       8.866629,
       52.4372095
      ],
      [
       8.8666161,
       52.4372076
      ],
      [
       8.8664066,
       52.4381797
      ],
      [
       8.8663561,
       52.4384149
      ],
      [
       8.8662769,
       52.4387815
      ],
      [
       8.8663697,
       52.4387949
      ],
      [
       8.8664711,
       52.438328
      ],
      [
       8.8664875,
       52.4383658
      ],
      [
       8.8665063,
       52.4384805
      ],
      [
       8.8664854,
       52.4388632
      ],
      [
       8.8664565,
       52.4390441
      ],
      [
       8.8663529,
       52.4391545
      ],
      [
       8.8662925,
       52.4391498
      ],
      [
       8.8661977,
       52.4391425
      ],
      [
       8.866035,
       52.4391956
      ],
      [
       8.8658247,
       52.4391937
      ],
      [
       8.8657616,
       52.4391621
      ],
      [
       8.8657079,
       52.4390814
      ],
      [
       8.8656301,
       52.4390653
      ],
      [
       8.865568,
       52.4390524
      ],
      [
       8.8652158,
       52.4389867
      ],
      [
       8.8645797,
       52.4388744
      ],
      [
       8.864336,
       52.4388417
      ],
      [
       8.8640604,
       52.4388138
      ],
      [
       8.8641215,
       52.4384883
      ],
      [
       8.8641941,
       52.4381022
      ],
      [
       8.8641957,
       52.4380899
      ],
      [
       8.864198,
       52.4380735
      ],
      [
       8.8642046,
       52.4380233
      ],
      [
       8.8641152,
       52.4380193
      ],
      [
       8.8637551,
       52.4380031
      ],
      [
       8.8628719,
       52.4379634
      ],
      [
       8.8628734,
       52.437983
      ],
      [
       8.8628898,
       52.4382131
      ],
      [
       8.8629267,
       52.438716
      ]
     ]
    ]
   }
  },
  {
   "type": "Feature",
   "properties": {
    "name": "Sappelloh",
    "admin_level": 10,
    "osm_relation": 2991043,
    "anteil_in_gemeinde": 0.9998,
    "flaeche_km2": 16.11
   },
   "geometry": {
    "type": "Polygon",
    "coordinates": [
     [
      [
       8.8503374,
       52.3899532
      ],
      [
       8.8476961,
       52.3903473
      ],
      [
       8.8457099,
       52.3906394
      ],
      [
       8.8435826,
       52.3909522
      ],
      [
       8.8434393,
       52.3909727
      ],
      [
       8.8413688,
       52.3912732
      ],
      [
       8.8374277,
       52.3918048
      ],
      [
       8.8353849,
       52.3920742
      ],
      [
       8.8347711,
       52.3921551
      ],
      [
       8.8311762,
       52.3926525
      ],
      [
       8.8227177,
       52.393795
      ],
      [
       8.8247699,
       52.3993783
      ],
      [
       8.8279418,
       52.4079288
      ],
      [
       8.8281937,
       52.4080958
      ],
      [
       8.8343225,
       52.4072075
      ],
      [
       8.8355142,
       52.4093657
      ],
      [
       8.8350487,
       52.4114215
      ],
      [
       8.8347042,
       52.4115351
      ],
      [
       8.8352628,
       52.4126879
      ],
      [
       8.8283269,
       52.4137555
      ],
      [
       8.8279978,
       52.4194046
      ],
      [
       8.8283137,
       52.4200229
      ],
      [
       8.8292408,
       52.4215088
      ],
      [
       8.8293407,
       52.4216689
      ],
      [
       8.8299859,
       52.4228252
      ],
      [
       8.8294987,
       52.4233952
      ],
      [
       8.8295382,
       52.4241259
      ],
      [
       8.8301702,
       52.4245032
      ],
      [
       8.8309997,
       52.4243427
      ],
      [
       8.8316448,
       52.4239412
      ],
      [
       8.831816,
       52.4236361
      ],
      [
       8.8335934,
       52.4237887
      ],
      [
       8.8338041,
       52.4243748
      ],
      [
       8.8343702,
       52.4243748
      ],
      [
       8.8360028,
       52.4239251
      ],
      [
       8.8374511,
       52.4237084
      ],
      [
       8.8402687,
       52.4246076
      ],
      [
       8.8387582,
       52.4257715
      ],
      [
       8.8387619,
       52.4258533
      ],
      [
       8.8387613,
       52.4261327
      ],
      [
       8.8406189,
       52.426458
      ],
      [
       8.8410809,
       52.4276749
      ],
      [
       8.83654,
       52.4278014
      ],
      [
       8.8350716,
       52.4296661
      ],
      [
       8.8273965,
       52.4311546
      ],
      [
       8.8276255,
       52.4316228
      ],
      [
       8.8307375,
       52.4314092
      ],
      [
       8.8339168,
       52.4312367
      ],
      [
       8.8336474,
       52.4318446
      ],
      [
       8.8316401,
       52.4330273
      ],
      [
       8.8326505,
       52.4336926
      ],
      [
       8.8280297,
       52.4367808
      ],
      [
       8.8216171,
       52.4409773
      ],
      [
       8.820291,
       52.441849
      ],
      [
       8.8203362,
       52.4419314
      ],
      [
       8.8211579,
       52.4434284
      ],
      [
       8.8215008,
       52.44362
      ],
      [
       8.8252665,
       52.4446177
      ],
      [
       8.8262759,
       52.442513
      ],
      [
       8.828401,
       52.4424594
      ],
      [
       8.8281281,
       52.4409621
      ],
      [
       8.8323359,
       52.4407246
      ],
      [
       8.8329083,
       52.4409797
      ],
      [
       8.8344799,
       52.4416015
      ],
      [
       8.8350651,
       52.4402838
      ],
      [
       8.8352101,
       52.4389985
      ],
      [
       8.8371477,
       52.439829
      ],
      [
       8.8387148,
       52.4382662
      ],
      [
       8.842978,
       52.4386576
      ],
      [
       8.8448988,
       52.4388339
      ],
      [
       8.8449466,
       52.44086
      ],
      [
       8.8469122,
       52.4409041
      ],
      [
       8.8484236,
       52.4408332
      ],
      [
       8.8523012,
       52.4411042
      ],
      [
       8.8579838,
       52.4406638
      ],
      [
       8.8588156,
       52.4389482
      ],
      [
       8.8629267,
       52.438716
      ],
      [
       8.8628898,
       52.4382131
      ],
      [
       8.8628734,
       52.437983
      ],
      [
       8.8628719,
       52.4379634
      ],
      [
       8.8637551,
       52.4380031
      ],
      [
       8.8641152,
       52.4380193
      ],
      [
       8.8642046,
       52.4380233
      ],
      [
       8.864198,
       52.4380735
      ],
      [
       8.8641957,
       52.4380899
      ],
      [
       8.8641941,
       52.4381022
      ],
      [
       8.8641215,
       52.4384883
      ],
      [
       8.8640604,
       52.4388138
      ],
      [
       8.864336,
       52.4388417
      ],
      [
       8.8645797,
       52.4388744
      ],
      [
       8.8652158,
       52.4389867
      ],
      [
       8.865568,
       52.4390524
      ],
      [
       8.8656301,
       52.4390653
      ],
      [
       8.8657079,
       52.4390814
      ],
      [
       8.8657616,
       52.4391621
      ],
      [
       8.8658247,
       52.4391937
      ],
      [
       8.866035,
       52.4391956
      ],
      [
       8.8661977,
       52.4391425
      ],
      [
       8.8662925,
       52.4391498
      ],
      [
       8.8663529,
       52.4391545
      ],
      [
       8.8664565,
       52.4390441
      ],
      [
       8.8664854,
       52.4388632
      ],
      [
       8.8665063,
       52.4384805
      ],
      [
       8.8664875,
       52.4383658
      ],
      [
       8.8664711,
       52.438328
      ],
      [
       8.8663697,
       52.4387949
      ],
      [
       8.8662769,
       52.4387815
      ],
      [
       8.8663561,
       52.4384149
      ],
      [
       8.8664066,
       52.4381797
      ],
      [
       8.8666161,
       52.4372076
      ],
      [
       8.866629,
       52.4372095
      ],
      [
       8.8666537,
       52.437167
      ],
      [
       8.8666235,
       52.4371621
      ],
      [
       8.8654826,
       52.4369784
      ],
      [
       8.8646949,
       52.4368005
      ],
      [
       8.8634616,
       52.436547
      ],
      [
       8.8633356,
       52.4365211
      ],
      [
       8.8621894,
       52.4362855
      ],
      [
       8.8618942,
       52.4362248
      ],
      [
       8.8601119,
       52.4358584
      ],
      [
       8.8599103,
       52.4358216
      ],
      [
       8.8598061,
       52.4358026
      ],
      [
       8.8598211,
       52.4357464
      ],
      [
       8.8598346,
       52.435749
      ],
      [
       8.8598974,
       52.4357607
      ],
      [
       8.860352,
       52.4337664
      ],
      [
       8.8603841,
       52.4337715
      ],
      [
       8.8604357,
       52.4337796
      ],
      [
       8.8618384,
       52.4340675
      ],
      [
       8.8621394,
       52.4341281
      ],
      [
       8.8629987,
       52.4343015
      ],
      [
       8.8630156,
       52.4343049
      ],
      [
       8.865016,
       52.43472
      ],
      [
       8.8650358,
       52.4347241
      ],
      [
       8.8650858,
       52.4347344
      ],
      [
       8.866161,
       52.4349548
      ],
      [
       8.8666095,
       52.4350468
      ],
      [
       8.866919,
       52.4351102
      ],
      [
       8.8679678,
       52.4353253
      ],
      [
       8.8680134,
       52.4353346
      ],
      [
       8.8691356,
       52.4355648
      ],
      [
       8.8693093,
       52.4347762
      ],
      [
       8.8694984,
       52.4339457
      ],
      [
       8.8695483,
       52.4339048
      ],
      [
       8.8696377,
       52.4338506
      ],
      [
       8.8697035,
       52.4338106
      ],
      [
       8.8697587,
       52.433777
      ],
      [
       8.8703698,
       52.4334049
      ],
      [
       8.8705738,
       52.4332807
      ],
      [
       8.8715499,
       52.4326863
      ],
      [
       8.8716264,
       52.432716
      ],
      [
       8.8716959,
       52.4327474
      ],
      [
       8.8717278,
       52.4327595
      ],
      [
       8.8726284,
       52.4331019
      ],
      [
       8.8727602,
       52.4331541
      ],
      [
       8.8728058,
       52.4331248
      ],
      [
       8.8728419,
       52.4331016
      ],
      [
       8.8728809,
       52.4330764
      ],
      [
       8.87298,
       52.4331147
      ],
      [
       8.8729471,
       52.4330336
      ],
      [
       8.8735011,
       52.4326748
      ],
      [
       8.8742057,
       52.4322185
      ],
      [
       8.875018,
       52.4316925
      ],
      [
       8.8760771,
       52.4310065
      ],
      [
       8.877286,
       52.4302227
      ],
      [
       8.8771947,
       52.4301443
      ],
      [
       8.8771603,
       52.4300936
      ],
      [
       8.8752156,
       52.4299964
      ],
      [
       8.875179,
       52.429995
      ],
      [
       8.8751801,
       52.4300049
      ],
      [
       8.8751351,
       52.4300071
      ],
      [
       8.8748578,
       52.4300212
      ],
      [
       8.8737547,
       52.4300768
      ],
      [
       8.8733654,
       52.4291081
      ],
      [
       8.8733227,
       52.4291326
      ],
      [
       8.8731103,
       52.4285951
      ],
      [
       8.8730888,
       52.428566
      ],
      [
       8.8730416,
       52.4285595
      ],
      [
       8.872074,
       52.4285372
      ],
      [
       8.8720093,
       52.4285283
      ],
      [
       8.8719583,
       52.4284768
      ],
      [
       8.8720482,
       52.4276763
      ],
      [
       8.8720826,
       52.4276413
      ],
      [
       8.8721256,
       52.4276323
      ],
      [
       8.8723178,
       52.4275911
      ],
      [
       8.8728453,
       52.4274949
      ],
      [
       8.8748437,
       52.4274144
      ],
      [
       8.8754998,
       52.4273896
      ],
      [
       8.8755584,
       52.4273874
      ],
      [
       8.8761211,
       52.4268657
      ],
      [
       8.8761643,
       52.4268257
      ],
      [
       8.876221,
       52.426804
      ],
      [
       8.8762717,
       52.4268001
      ],
      [
       8.8773222,
       52.4270304
      ],
      [
       8.8789849,
       52.4274085
      ],
      [
       8.8790361,
       52.427401
      ],
      [
       8.8790677,
       52.4273965
      ],
      [
       8.8790465,
       52.4274496
      ],
      [
       8.8790949,
       52.427458
      ],
      [
       8.8791278,
       52.4274637
      ],
      [
       8.8776543,
       52.4192742
      ],
      [
       8.8772213,
       52.4192465
      ],
      [
       8.8761324,
       52.4191116
      ],
      [
       8.8750533,
       52.4190034
      ],
      [
       8.8730191,
       52.4185035
      ],
      [
       8.8754443,
       52.4147796
      ],
      [
       8.8765216,
       52.4081385
      ],
      [
       8.876579,
       52.4069819
      ],
      [
       8.876609,
       52.4066807
      ],
      [
       8.8767923,
       52.4057718
      ],
      [
       8.8769238,
       52.4035207
      ],
      [
       8.8775557,
       52.4035733
      ],
      [
       8.8768376,
       52.4020047
      ],
      [
       8.8770622,
       52.4008341
      ],
      [
       8.8741575,
       52.4008527
      ],
      [
       8.87432,
       52.4001091
      ],
      [
       8.8749802,
       52.3995576
      ],
      [
       8.8744013,
       52.399037
      ],
      [
       8.8738021,
       52.3976923
      ],
      [
       8.8752747,
       52.3971965
      ],
      [
       8.8746014,
       52.3960086
      ],
      [
       8.8720591,
       52.3962891
      ],
      [
       8.8698447,
       52.3947569
      ],
      [
       8.8668272,
       52.3964047
      ],
      [
       8.8641179,
       52.394604
      ],
      [
       8.8618478,
       52.3950203
      ],
      [
       8.8619768,
       52.3941073
      ],
      [
       8.8582319,
       52.3946628
      ],
      [
       8.8584101,
       52.3930638
      ],
      [
       8.8560914,
       52.3930467
      ],
      [
       8.8558733,
       52.3927541
      ],
      [
       8.8557394,
       52.3927242
      ],
      [
       8.855779,
       52.3926195
      ],
      [
       8.8543782,
       52.3907248
      ],
      [
       8.854217,
       52.3907028
      ],
      [
       8.8542578,
       52.3905598
      ],
      [
       8.8534638,
       52.389492
      ],
      [
       8.8533222,
       52.3895155
      ],
      [
       8.8532604,
       52.3895246
      ],
      [
       8.8527701,
       52.3895962
      ],
      [
       8.8514253,
       52.3897928
      ],
      [
       8.8503374,
       52.3899532
      ]
     ]
    ]
   }
  },
  {
   "type": "Feature",
   "properties": {
    "name": "Warmsen",
    "admin_level": 10,
    "osm_relation": 2991044,
    "anteil_in_gemeinde": 0.9979,
    "flaeche_km2": 23.963
   },
   "geometry": {
    "type": "Polygon",
    "coordinates": [
     [
      [
       8.8629267,
       52.438716
      ],
      [
       8.8588156,
       52.4389482
      ],
      [
       8.8579838,
       52.4406638
      ],
      [
       8.8523012,
       52.4411042
      ],
      [
       8.8484236,
       52.4408332
      ],
      [
       8.8469122,
       52.4409041
      ],
      [
       8.8449466,
       52.44086
      ],
      [
       8.8448988,
       52.4388339
      ],
      [
       8.842978,
       52.4386576
      ],
      [
       8.8387148,
       52.4382662
      ],
      [
       8.8371477,
       52.439829
      ],
      [
       8.8352101,
       52.4389985
      ],
      [
       8.8350651,
       52.4402838
      ],
      [
       8.8344799,
       52.4416015
      ],
      [
       8.8329083,
       52.4409797
      ],
      [
       8.8325891,
       52.4412686
      ],
      [
       8.8320185,
       52.4413158
      ],
      [
       8.8321341,
       52.4421445
      ],
      [
       8.8334109,
       52.4452933
      ],
      [
       8.8312613,
       52.4477767
      ],
      [
       8.8311581,
       52.4562636
      ],
      [
       8.831009,
       52.4564941
      ],
      [
       8.8269774,
       52.4597072
      ],
      [
       8.8265771,
       52.4623965
      ],
      [
       8.8238367,
       52.4618334
      ],
      [
       8.8234577,
       52.4616389
      ],
      [
       8.8230488,
       52.46125
      ],
      [
       8.8223407,
       52.4603203
      ],
      [
       8.8146913,
       52.4633829
      ],
      [
       8.7989881,
       52.4696422
      ],
      [
       8.798957,
       52.4721842
      ],
      [
       8.7974686,
       52.4723457
      ],
      [
       8.7961423,
       52.4722021
      ],
      [
       8.7950665,
       52.4720181
      ],
      [
       8.7942781,
       52.4717308
      ],
      [
       8.794197,
       52.4715423
      ],
      [
       8.7944107,
       52.4701105
      ],
      [
       8.7948234,
       52.4694192
      ],
      [
       8.7970891,
       52.4679851
      ],
      [
       8.7973782,
       52.4678186
      ],
      [
       8.8020276,
       52.4660499
      ],
      [
       8.8030649,
       52.4653153
      ],
      [
       8.8031691,
       52.4648074
      ],
      [
       8.8008702,
       52.4640638
      ],
      [
       8.8006911,
       52.4640058
      ],
      [
       8.7960073,
       52.4624905
      ],
      [
       8.7943642,
       52.4628362
      ],
      [
       8.7931411,
       52.4629574
      ],
      [
       8.7927063,
       52.4630921
      ],
      [
       8.7924484,
       52.4633929
      ],
      [
       8.7923895,
       52.4637745
      ],
      [
       8.7916969,
       52.4642503
      ],
      [
       8.7912622,
       52.4646454
      ],
      [
       8.7906948,
       52.4655118
      ],
      [
       8.7902748,
       52.4657048
      ],
      [
       8.789538,
       52.4659068
      ],
      [
       8.7881675,
       52.4659113
      ],
      [
       8.7876222,
       52.4657721
      ],
      [
       8.787298,
       52.4658125
      ],
      [
       8.7869075,
       52.4659382
      ],
      [
       8.7866938,
       52.4660774
      ],
      [
       8.7833755,
       52.4667518
      ],
      [
       8.7819169,
       52.4675758
      ],
      [
       8.7835863,
       52.4684367
      ],
      [
       8.7814644,
       52.4703056
      ],
      [
       8.7814677,
       52.4704603
      ],
      [
       8.7812393,
       52.4704366
      ],
      [
       8.779181,
       52.4716916
      ],
      [
       8.7783636,
       52.4714058
      ],
      [
       8.7754265,
       52.473494
      ],
      [
       8.7724793,
       52.476194
      ],
      [
       8.772542,
       52.4762367
      ],
      [
       8.7921312,
       52.4895939
      ],
      [
       8.78633,
       52.4925995
      ],
      [
       8.7921143,
       52.4964591
      ],
      [
       8.7974654,
       52.4938215
      ],
      [
       8.8020893,
       52.4970636
      ],
      [
       8.8029921,
       52.4976966
      ],
      [
       8.8143556,
       52.4918472
      ],
      [
       8.8233529,
       52.4985196
      ],
      [
       8.8237259,
       52.4983296
      ],
      [
       8.8241001,
       52.498139
      ],
      [
       8.8244789,
       52.4979462
      ],
      [
       8.8248756,
       52.4977441
      ],
      [
       8.8250215,
       52.4976698
      ],
      [
       8.8252849,
       52.4975357
      ],
      [
       8.8256794,
       52.4973348
      ],
      [
       8.8260828,
       52.4971293
      ],
      [
       8.8264513,
       52.4969416
      ],
      [
       8.8268981,
       52.496714
      ],
      [
       8.8273448,
       52.4964864
      ],
      [
       8.8280812,
       52.4961114
      ],
      [
       8.8282395,
       52.4960307
      ],
      [
       8.8284143,
       52.4959416
      ],
      [
       8.8288048,
       52.4957427
      ],
      [
       8.8290174,
       52.4956344
      ],
      [
       8.8292291,
       52.4955265
      ],
      [
       8.8294426,
       52.4954177
      ],
      [
       8.8296562,
       52.4953089
      ],
      [
       8.8298688,
       52.4952006
      ],
      [
       8.8300812,
       52.4950924
      ],
      [
       8.8302938,
       52.4949841
      ],
      [
       8.8305074,
       52.4948753
      ],
      [
       8.830738,
       52.4947578
      ],
      [
       8.8310047,
       52.4946219
      ],
      [
       8.8312177,
       52.4945133
      ],
      [
       8.8314579,
       52.494391
      ],
      [
       8.8316972,
       52.4942691
      ],
      [
       8.8318068,
       52.4942133
      ],
      [
       8.8319273,
       52.4941519
      ],
      [
       8.8321452,
       52.4940409
      ],
      [
       8.8323483,
       52.4939373
      ],
      [
       8.832663,
       52.493777
      ],
      [
       8.8329306,
       52.4936406
      ],
      [
       8.8332765,
       52.4934644
      ],
      [
       8.833658,
       52.4932701
      ],
      [
       8.8339512,
       52.4931205
      ],
      [
       8.8343401,
       52.4929224
      ],
      [
       8.8347724,
       52.4927021
      ],
      [
       8.8349309,
       52.4926214
      ],
      [
       8.8332754,
       52.4914078
      ],
      [
       8.8326133,
       52.4909226
      ],
      [
       8.8325993,
       52.4909125
      ],
      [
       8.8322276,
       52.49064
      ],
      [
       8.8318977,
       52.4903982
      ],
      [
       8.8314709,
       52.4900853
      ],
      [
       8.8310149,
       52.4897511
      ],
      [
       8.8304391,
       52.4893291
      ],
      [
       8.8322963,
       52.4883838
      ],
      [
       8.8323917,
       52.4883591
      ],
      [
       8.8328341,
       52.4884695
      ],
      [
       8.8329642,
       52.4885021
      ],
      [
       8.8332683,
       52.4885783
      ],
      [
       8.8334572,
       52.4886259
      ],
      [
       8.8349212,
       52.4889944
      ],
      [
       8.8365074,
       52.4893938
      ],
      [
       8.8367393,
       52.4894528
      ],
      [
       8.836907,
       52.4895617
      ],
      [
       8.8383656,
       52.4905242
      ],
      [
       8.8383749,
       52.4905303
      ],
      [
       8.841259,
       52.4886635
      ],
      [
       8.8412486,
       52.4886566
      ],
      [
       8.8412712,
       52.4886418
      ],
      [
       8.84132,
       52.48861
      ],
      [
       8.8414056,
       52.4885548
      ],
      [
       8.841413,
       52.48855
      ],
      [
       8.8435516,
       52.4871606
      ],
      [
       8.8437251,
       52.4870479
      ],
      [
       8.8443708,
       52.4866287
      ],
      [
       8.8450666,
       52.4861769
      ],
      [
       8.8452182,
       52.4860784
      ],
      [
       8.8456015,
       52.4858293
      ],
      [
       8.8464608,
       52.4852712
      ],
      [
       8.8465001,
       52.4852456
      ],
      [
       8.8465396,
       52.4852198
      ],
      [
       8.8465682,
       52.485201
      ],
      [
       8.8466149,
       52.4851707
      ],
      [
       8.8466484,
       52.4851482
      ],
      [
       8.8466683,
       52.4851352
      ],
      [
       8.8486664,
       52.4845033
      ],
      [
       8.849916,
       52.4841075
      ],
      [
       8.8516295,
       52.4835644
      ],
      [
       8.8517376,
       52.4835303
      ],
      [
       8.8517493,
       52.4835264
      ],
      [
       8.8518197,
       52.4835041
      ],
      [
       8.8518759,
       52.4834862
      ],
      [
       8.8544984,
       52.4826569
      ],
      [
       8.8552456,
       52.4824203
      ],
      [
       8.855299,
       52.4824034
      ],
      [
       8.8560188,
       52.4821762
      ],
      [
       8.8560315,
       52.4821713
      ],
      [
       8.8563928,
       52.4820569
      ],
      [
       8.8564826,
       52.4820287
      ],
      [
       8.8565981,
       52.4819919
      ],
      [
       8.8572604,
       52.4817821
      ],
      [
       8.857903,
       52.4815786
      ],
      [
       8.8590192,
       52.4812249
      ],
      [
       8.859739,
       52.4809972
      ],
      [
       8.8598836,
       52.4804987
      ],
      [
       8.8599249,
       52.4805162
      ],
      [
       8.8604735,
       52.4807487
      ],
      [
       8.8608657,
       52.4809148
      ],
      [
       8.8614119,
       52.4804798
      ],
      [
       8.8614993,
       52.4804102
      ],
      [
       8.861568,
       52.4803555
      ],
      [
       8.8618339,
       52.4801422
      ],
      [
       8.8618888,
       52.4800999
      ],
      [
       8.8621927,
       52.4798544
      ],
      [
       8.8631741,
       52.4790671
      ],
      [
       8.863195,
       52.4790504
      ],
      [
       8.8643858,
       52.4781019
      ],
      [
       8.8645665,
       52.4779581
      ],
      [
       8.8652654,
       52.4774014
      ],
      [
       8.8653671,
       52.4773207
      ],
      [
       8.8671832,
       52.4758815
      ],
      [
       8.8672358,
       52.475828
      ],
      [
       8.866852,
       52.4756793
      ],
      [
       8.8667899,
       52.4756553
      ],
      [
       8.8663951,
       52.4755024
      ],
      [
       8.8668137,
       52.4745229
      ],
      [
       8.8668426,
       52.4744554
      ],
      [
       8.8673568,
       52.4732524
      ],
      [
       8.8668841,
       52.4731076
      ],
      [
       8.8669055,
       52.4730743
      ],
      [
       8.8669355,
       52.4730274
      ],
      [
       8.8669601,
       52.4729892
      ],
      [
       8.8669718,
       52.4729743
      ],
      [
       8.8669787,
       52.4729655
      ],
      [
       8.8668892,
       52.4729379
      ],
      [
       8.8667575,
       52.4728974
      ],
      [
       8.8667886,
       52.4728811
      ],
      [
       8.8672254,
       52.472654
      ],
      [
       8.8673967,
       52.4725649
      ],
      [
       8.8675995,
       52.4724596
      ],
      [
       8.8676648,
       52.4724256
      ],
      [
       8.8686446,
       52.4719163
      ],
      [
       8.8687351,
       52.4719254
      ],
      [
       8.8688643,
       52.4719383
      ],
      [
       8.8689338,
       52.4719452
      ],
      [
       8.8692446,
       52.4721558
      ],
      [
       8.869273,
       52.4721663
      ],
      [
       8.8703751,
       52.4729097
      ],
      [
       8.8705151,
       52.4728575
      ],
      [
       8.8706022,
       52.4728343
      ],
      [
       8.8730704,
       52.4725
      ],
      [
       8.8717365,
       52.4716005
      ],
      [
       8.8714887,
       52.4714334
      ],
      [
       8.8713388,
       52.4713323
      ],
      [
       8.8710487,
       52.4711367
      ],
      [
       8.8700139,
       52.470439
      ],
      [
       8.8694544,
       52.4700618
      ],
      [
       8.8689586,
       52.46973
      ],
      [
       8.871074,
       52.4685787
      ],
      [
       8.8713697,
       52.4684173
      ],
      [
       8.8720731,
       52.4680344
      ],
      [
       8.8722258,
       52.4679513
      ],
      [
       8.8722467,
       52.4679404
      ],
      [
       8.8735163,
       52.4686169
      ],
      [
       8.8735311,
       52.4686251
      ],
      [
       8.8735445,
       52.4686325
      ],
      [
       8.8738956,
       52.4688404
      ],
      [
       8.8739963,
       52.4688885
      ],
      [
       8.8740916,
       52.4689431
      ],
      [
       8.8742159,
       52.4690012
      ],
      [
       8.8742419,
       52.4689823
      ],
      [
       8.873585,
       52.4686065
      ],
      [
       8.8738598,
       52.4681341
      ],
      [
       8.8739688,
       52.4679475
      ],
      [
       8.8745009,
       52.467035
      ],
      [
       8.8752803,
       52.465672
      ],
      [
       8.8753171,
       52.465607
      ],
      [
       8.8753294,
       52.4655853
      ],
      [
       8.8753307,
       52.4655832
      ],
      [
       8.8740362,
       52.4645203
      ],
      [
       8.873924,
       52.4644281
      ],
      [
       8.8738521,
       52.464369
      ],
      [
       8.8733797,
       52.4639809
      ],
      [
       8.8733682,
       52.463955
      ],
      [
       8.8734293,
       52.4637175
      ],
      [
       8.8733878,
       52.4637141
      ],
      [
       8.8733569,
       52.4637115
      ],
      [
       8.8732999,
       52.4639518
      ],
      [
       8.8732337,
       52.4638977
      ],
      [
       8.8731941,
       52.4638654
      ],
      [
       8.8719343,
       52.4628381
      ],
      [
       8.8718611,
       52.4627786
      ],
      [
       8.8704023,
       52.4623198
      ],
      [
       8.8703251,
       52.4622955
      ],
      [
       8.8689955,
       52.461878
      ],
      [
       8.8688419,
       52.4618298
      ],
      [
       8.8682929,
       52.4616573
      ],
      [
       8.8682826,
       52.4616163
      ],
      [
       8.8682354,
       52.4615857
      ],
      [
       8.8674991,
       52.4613524
      ],
      [
       8.8665721,
       52.4610587
      ],
      [
       8.8665609,
       52.4610051
      ],
      [
       8.8679514,
       52.4587432
      ],
      [
       8.8685155,
       52.4578317
      ],
      [
       8.8691656,
       52.4567734
      ],
      [
       8.8693826,
       52.4564136
      ],
      [
       8.8696228,
       52.456025
      ],
      [
       8.8696347,
       52.45597
      ],
      [
       8.8689519,
       52.4546927
      ],
      [
       8.868861,
       52.4545227
      ],
      [
       8.8685189,
       52.4538826
      ],
      [
       8.8684717,
       52.4537943
      ],
      [
       8.8684334,
       52.4537428
      ],
      [
       8.8683652,
       52.4537038
      ],
      [
       8.868261,
       52.4536657
      ],
      [
       8.8680789,
       52.453602
      ],
      [
       8.8671935,
       52.4532923
      ],
      [
       8.8671118,
       52.4532618
      ],
      [
       8.866334,
       52.4530909
      ],
      [
       8.8661973,
       52.4530948
      ],
      [
       8.8661844,
       52.4530525
      ],
      [
       8.8661708,
       52.4530078
      ],
      [
       8.8661958,
       52.4530077
      ],
      [
       8.8662116,
       52.4530078
      ],
      [
       8.8663016,
       52.4530085
      ],
      [
       8.8667982,
       52.4522053
      ],
      [
       8.8669239,
       52.4519122
      ],
      [
       8.8670033,
       52.4517594
      ],
      [
       8.8675095,
       52.450946
      ],
      [
       8.8675126,
       52.4508927
      ],
      [
       8.8675702,
       52.4507975
      ],
      [
       8.8675567,
       52.4507977
      ],
      [
       8.867549,
       52.4506803
      ],
      [
       8.8675733,
       52.4504104
      ],
      [
       8.8675167,
       52.4502311
      ],
      [
       8.8674652,
       52.4500679
      ],
      [
       8.8674893,
       52.449941
      ],
      [
       8.8675272,
       52.4498046
      ],
      [
       8.8675475,
       52.4497139
      ],
      [
       8.8675088,
       52.449402
      ],
      [
       8.8672178,
       52.4485794
      ],
      [
       8.8671353,
       52.4484479
      ],
      [
       8.8670666,
       52.4481843
      ],
      [
       8.8670465,
       52.4480966
      ],
      [
       8.8670077,
       52.4479272
      ],
      [
       8.8669981,
       52.4477453
      ],
      [
       8.8669742,
       52.4476148
      ],
      [
       8.8668537,
       52.4476111
      ],
      [
       8.8663517,
       52.4475912
      ],
      [
       8.866214,
       52.4476065
      ],
      [
       8.8660684,
       52.4476409
      ],
      [
       8.8659186,
       52.4476916
      ],
      [
       8.8658817,
       52.4477056
      ],
      [
       8.8658394,
       52.4477216
      ],
      [
       8.8658004,
       52.4477338
      ],
      [
       8.8656676,
       52.4477892
      ],
      [
       8.8656513,
       52.4477671
      ],
      [
       8.8656126,
       52.4477084
      ],
      [
       8.8655914,
       52.4476778
      ],
      [
       8.8655845,
       52.4476678
      ],
      [
       8.8654748,
       52.4477131
      ],
      [
       8.8646477,
       52.4480545
      ],
      [
       8.8645964,
       52.4480387
      ],
      [
       8.8645579,
       52.4480266
      ],
      [
       8.8645262,
       52.4474932
      ],
      [
       8.8644667,
       52.44741
      ],
      [
       8.8639569,
       52.4466972
      ],
      [
       8.8633564,
       52.4458576
      ],
      [
       8.8645966,
       52.4460069
      ],
      [
       8.8645546,
       52.4458671
      ],
      [
       8.8644088,
       52.4453815
      ],
      [
       8.8643737,
       52.4452549
      ],
      [
       8.8643736,
       52.4452543
      ],
      [
       8.8642435,
       52.4447066
      ],
      [
       8.8642879,
       52.4444735
      ],
      [
       8.8643119,
       52.4443473
      ],
      [
       8.8644647,
       52.4441008
      ],
      [
       8.8651535,
       52.4441817
      ],
      [
       8.8652862,
       52.4441973
      ],
      [
       8.865363,
       52.4437495
      ],
      [
       8.864437,
       52.4437819
      ],
      [
       8.8644318,
       52.4433615
      ],
      [
       8.8643321,
       52.4430351
      ],
      [
       8.8642799,
       52.4429814
      ],
      [
       8.8641977,
       52.4428827
      ],
      [
       8.864276,
       52.4426627
      ],
      [
       8.8643714,
       52.4426254
      ],
      [
       8.8645099,
       52.442296
      ],
      [
       8.8646992,
       52.442066
      ],
      [
       8.8647672,
       52.4419859
      ],
      [
       8.8648833,
       52.4418538
      ],
      [
       8.8650349,
       52.4416792
      ],
      [
       8.8654084,
       52.4412564
      ],
      [
       8.8654339,
       52.4412274
      ],
      [
       8.8658717,
       52.4407314
      ],
      [
       8.8659669,
       52.4406235
      ],
      [
       8.8663792,
       52.4401564
      ],
      [
       8.8658032,
       52.4400903
      ],
      [
       8.8659018,
       52.4399283
      ],
      [
       8.8655733,
       52.4398411
      ],
      [
       8.8651725,
       52.4397347
      ],
      [
       8.8649021,
       52.4396626
      ],
      [
       8.8646249,
       52.4396015
      ],
      [
       8.8643442,
       52.4395925
      ],
      [
       8.8640308,
       52.4395857
      ],
      [
       8.8638103,
       52.4395903
      ],
      [
       8.8629866,
       52.4396086
      ],
      [
       8.8629267,
       52.438716
      ]
     ]
    ]
   }
  }
 ]
}
